start=new Date('2022-08-16T00:00:00.000Z').valueOf();
sats=[{"RCS_SIZE":"LARGE","NORAD_CAT_ID":"47806","INCLINATION":"53.0555","REF_FRAME":"TEME","FILE":"3537378","EPOCH":"2022-08-15T18:13:25.025088","MEAN_MOTION":"15.06395286","PERIAPSIS":"546.213","ECCENTRICITY":"0.00014650","OBJECT_NAME":"STARLINK-2387","TLE_LINE2":"2 47806  53.0555 331.2243 0001465  79.6225 280.4929 15.06395286 80495","APOAPSIS":"548.243","COUNTRY_CODE":"US","MEAN_MOTION_DOT":"0.00001070","MEAN_ANOMALY":"280.4929","MEAN_MOTION_DDOT":"0.0000000000000","DECAY_DATE":null,"SITE":"AFETR","CENTER_NAME":"EARTH","LAUNCH_DATE":"2021-03-11","TLE_LINE1":"1 47806U 21018V   22227.75931742  .00001070  00000-0  90704-4 0  9992","EPHEMERIS_TYPE":"0","REV_AT_EPOCH":"8049","RA_OF_ASC_NODE":"331.2243","ARG_OF_PERICENTER":"79.6225","PERIOD":"95.592","ELEMENT_SET_NO":"999","TIME_SYSTEM":"UTC","SEMIMAJOR_AXIS":"6925.363","OBJECT_TYPE":"PAYLOAD","BSTAR":"0.00009070400000","CLASSIFICATION_TYPE":"U","OBJECT_ID":"2021-018V","GP_ID":"210297915","MEAN_ELEMENT_THEORY":"SGP4"},{"EPHEMERIS_TYPE":"0","REV_AT_EPOCH":"8075","TLE_LINE1":"1 47807U 21018W   22227.61602057  .00001321  00000-0  10758-3 0  9991","DECAY_DATE":null,"MEAN_MOTION_DDOT":"0.0000000000000","CENTER_NAME":"EARTH","LAUNCH_DATE":"2021-03-11","SITE":"AFETR","MEAN_ANOMALY":"278.6027","CLASSIFICATION_TYPE":"U","MEAN_ELEMENT_THEORY":"SGP4","GP_ID":"210298165","OBJECT_ID":"2021-018W","OBJECT_TYPE":"PAYLOAD","SEMIMAJOR_AXIS":"6925.346","BSTAR":"0.00010758000000","ELEMENT_SET_NO":"999","TIME_SYSTEM":"UTC","RA_OF_ASC_NODE":"306.8661","PERIOD":"95.592","ARG_OF_PERICENTER":"81.5118","FILE":"3537378","REF_FRAME":"TEME","NORAD_CAT_ID":"47807","RCS_SIZE":"LARGE","INCLINATION":"53.0555","MEAN_MOTION_DOT":"0.00001321","COUNTRY_CODE":"US","APOAPSIS":"548.166","TLE_LINE2":"2 47807  53.0555 306.8661 0001379  81.5118 278.6027 15.06400823 80756","PERIAPSIS":"546.256","OBJECT_NAME":"STARLINK-2388","ECCENTRICITY":"0.00013790","EPOCH":"2022-08-15T14:47:04.177248","MEAN_MOTION":"15.06400823"},{"FILE":"3536951","REF_FRAME":"TEME","INCLINATION":"53.0555","RCS_SIZE":"LARGE","NORAD_CAT_ID":"47808","COUNTRY_CODE":"US","MEAN_MOTION_DOT":"-0.00000210","TLE_LINE2":"2 47808  53.0555 332.6258 0001382  83.6852 276.4294 15.06402181 80041","APOAPSIS":"548.164","ECCENTRICITY":"0.00013820","OBJECT_NAME":"STARLINK-2389","PERIAPSIS":"546.250","EPOCH":"2022-08-15T10:42:14.914080","MEAN_MOTION":"15.06402181","REV_AT_EPOCH":"8004","EPHEMERIS_TYPE":"0","TLE_LINE1":"1 47808U 21018X   22227.44600595 -.00000210  00000-0  47700-5 0  9994","SITE":"AFETR","LAUNCH_DATE":"2021-03-11","CENTER_NAME":"EARTH","MEAN_MOTION_DDOT":"0.0000000000000","DECAY_DATE":null,"MEAN_ANOMALY":"276.4294","OBJECT_ID":"2021-018X","GP_ID":"210242940","MEAN_ELEMENT_THEORY":"SGP4","CLASSIFICATION_TYPE":"U","OBJECT_TYPE":"PAYLOAD","SEMIMAJOR_AXIS":"6925.342","BSTAR":"0.00000477000000","TIME_SYSTEM":"UTC","ELEMENT_SET_NO":"999","ARG_OF_PERICENTER":"83.6852","PERIOD":"95.592","RA_OF_ASC_NODE":"332.6258"},{"MEAN_MOTION":"15.06407521","EPOCH":"2022-08-15T10:48:10.990080","PERIAPSIS":"546.166","OBJECT_NAME":"STARLINK-2390","ECCENTRICITY":"0.00014790","APOAPSIS":"548.215","TLE_LINE2":"2 47809  53.0563 337.6006 0001479  77.6908 282.4247 15.06407521 80373","MEAN_MOTION_DOT":"0.00003137","COUNTRY_CODE":"US","NORAD_CAT_ID":"47809","RCS_SIZE":"LARGE","INCLINATION":"53.0563","REF_FRAME":"TEME","FILE":"3537056","RA_OF_ASC_NODE":"337.6006","PERIOD":"95.592","ARG_OF_PERICENTER":"77.6908","ELEMENT_SET_NO":"999","TIME_SYSTEM":"UTC","OBJECT_TYPE":"PAYLOAD","SEMIMAJOR_AXIS":"6925.326","BSTAR":"0.00022933000000","CLASSIFICATION_TYPE":"U","MEAN_ELEMENT_THEORY":"SGP4","GP_ID":"210266581","OBJECT_ID":"2021-018Y","MEAN_ANOMALY":"282.4247","DECAY_DATE":null,"MEAN_MOTION_DDOT":"0.0000000000000","LAUNCH_DATE":"2021-03-11","CENTER_NAME":"EARTH","SITE":"AFETR","TLE_LINE1":"1 47809U 21018Y   22227.45012720  .00003137  00000-0  22933-3 0  9992","EPHEMERIS_TYPE":"0","REV_AT_EPOCH":"8037"},{"MEAN_ANOMALY":"263.3139","DECAY_DATE":null,"MEAN_MOTION_DDOT":"0.0000000000000","CENTER_NAME":"EARTH","LAUNCH_DATE":"2021-03-11","SITE":"AFETR","TLE_LINE1":"1 47810U 21018Z   22227.47594939  .00000917  00000-0  80444-4 0  9998","EPHEMERIS_TYPE":"0","REV_AT_EPOCH":"8023","RA_OF_ASC_NODE":"347.4896","PERIOD":"95.592","ARG_OF_PERICENTER":"96.8000","ELEMENT_SET_NO":"999","TIME_SYSTEM":"UTC","OBJECT_TYPE":"PAYLOAD","SEMIMAJOR_AXIS":"6925.358","BSTAR":"0.00008044400000","CLASSIFICATION_TYPE":"U","GP_ID":"210267833","MEAN_ELEMENT_THEORY":"SGP4","OBJECT_ID":"2021-018Z","NORAD_CAT_ID":"47810","RCS_SIZE":"LARGE","INCLINATION":"53.0546","REF_FRAME":"TEME","FILE":"3537056","EPOCH":"2022-08-15T11:25:22.027296","MEAN_MOTION":"15.06397010","PERIAPSIS":"546.308","OBJECT_NAME":"STARLINK-2391","ECCENTRICITY":"0.00013210","APOAPSIS":"548.138","TLE_LINE2":"2 47810  53.0546 347.4896 0001321  96.8000 263.3139 15.06397010 80238","MEAN_MOTION_DOT":"0.00000917","COUNTRY_CODE":"US"},{"OBJECT_TYPE":"PAYLOAD","BSTAR":"0.00013987000000","SEMIMAJOR_AXIS":"6925.356","CLASSIFICATION_TYPE":"U","MEAN_ELEMENT_THEORY":"SGP4","GP_ID":"210297666","OBJECT_ID":"2021-018AA","RA_OF_ASC_NODE":"316.4189","PERIOD":"95.592","ARG_OF_PERICENTER":"95.2910","ELEMENT_SET_NO":"999","TIME_SYSTEM":"UTC","TLE_LINE1":"1 47811U 21018AA  22227.71461919  .00001802  00000-0  13987-3 0  9998","EPHEMERIS_TYPE":"0","REV_AT_EPOCH":"8069","MEAN_ANOMALY":"264.8238","DECAY_DATE":null,"MEAN_MOTION_DDOT":"0.0000000000000","LAUNCH_DATE":"2021-03-11","CENTER_NAME":"EARTH","SITE":"AFETR","APOAPSIS":"548.191","TLE_LINE2":"2 47811  53.0548 316.4189 0001401  95.2910 264.8238 15.06397536 80693","MEAN_MOTION_DOT":"0.00001802","COUNTRY_CODE":"US","MEAN_MOTION":"15.06397536","EPOCH":"2022-08-15T17:09:03.098016","PERIAPSIS":"546.251","OBJECT_NAME":"STARLINK-2392","ECCENTRICITY":"0.00014010","REF_FRAME":"TEME","FILE":"3537378","NORAD_CAT_ID":"47811","RCS_SIZE":"LARGE","INCLINATION":"53.0548"},{"EPHEMERIS_TYPE":"0","REV_AT_EPOCH":"8021","TLE_LINE1":"1 47812U 21018AB  22227.75240255  .00000228  00000-0  34183-4 0  9994","DECAY_DATE":null,"MEAN_MOTION_DDOT":"0.0000000000000","LAUNCH_DATE":"2021-03-11","CENTER_NAME":"EARTH","SITE":"AFETR","MEAN_ANOMALY":"284.9106","CLASSIFICATION_TYPE":"U","MEAN_ELEMENT_THEORY":"SGP4","GP_ID":"210298917","OBJECT_ID":"2021-018AB","OBJECT_TYPE":"PAYLOAD","SEMIMAJOR_AXIS":"6925.375","BSTAR":"0.00003418300000","ELEMENT_SET_NO":"999","TIME_SYSTEM":"UTC","RA_OF_ASC_NODE":"346.2455","PERIOD":"95.593","ARG_OF_PERICENTER":"75.2036","FILE":"3537378","REF_FRAME":"TEME","NORAD_CAT_ID":"47812","RCS_SIZE":"LARGE","INCLINATION":"53.0547","MEAN_MOTION_DOT":"0.00000228","COUNTRY_CODE":"US","APOAPSIS":"548.196","TLE_LINE2":"2 47812  53.0547 346.2455 0001381  75.2036 284.9106 15.06391390 80211","PERIAPSIS":"546.284","OBJECT_NAME":"STARLINK-2393","ECCENTRICITY":"0.00013810","EPOCH":"2022-08-15T18:03:27.580320","MEAN_MOTION":"15.06391390"},{"DECAY_DATE":null,"MEAN_MOTION_DDOT":"0.0000000000000","CENTER_NAME":"EARTH","LAUNCH_DATE":"2021-03-11","SITE":"AFETR","MEAN_ANOMALY":"268.8697","EPHEMERIS_TYPE":"0","REV_AT_EPOCH":"8030","TLE_LINE1":"1 47813U 21018AC  22227.80308580  .00000386  00000-0  44783-4 0  9999","ELEMENT_SET_NO":"999","TIME_SYSTEM":"UTC","RA_OF_ASC_NODE":"316.0257","PERIOD":"95.593","ARG_OF_PERICENTER":"91.2445","CLASSIFICATION_TYPE":"U","MEAN_ELEMENT_THEORY":"SGP4","GP_ID":"210273763","OBJECT_ID":"2021-018AC","OBJECT_TYPE":"PAYLOAD","BSTAR":"0.00004478300000","SEMIMAJOR_AXIS":"6925.372","NORAD_CAT_ID":"47813","RCS_SIZE":"LARGE","INCLINATION":"53.0566","FILE":"3537248","REF_FRAME":"TEME","PERIAPSIS":"546.309","OBJECT_NAME":"STARLINK-2394","ECCENTRICITY":"0.00013400","EPOCH":"2022-08-15T19:16:26.613120","MEAN_MOTION":"15.06392352","MEAN_MOTION_DOT":"0.00000386","COUNTRY_CODE":"US","APOAPSIS":"548.165","TLE_LINE2":"2 47813  53.0566 316.0257 0001340  91.2445 268.8697 15.06392352 80300"},{"APOAPSIS":"548.097","TLE_LINE2":"2 47814  53.0553 337.6979 0001239  87.1073 273.0058 15.06391634 79988","MEAN_MOTION_DOT":"0.00000124","COUNTRY_CODE":"US","EPOCH":"2022-08-15T10:17:42.241632","MEAN_MOTION":"15.06391634","PERIAPSIS":"546.381","OBJECT_NAME":"STARLINK-2395","ECCENTRICITY":"0.00012390","REF_FRAME":"TEME","FILE":"3537210","NORAD_CAT_ID":"47814","RCS_SIZE":"LARGE","INCLINATION":"53.0553","OBJECT_TYPE":"PAYLOAD","SEMIMAJOR_AXIS":"6925.374","BSTAR":"0.00002721800000","CLASSIFICATION_TYPE":"U","MEAN_ELEMENT_THEORY":"SGP4","GP_ID":"210272967","OBJECT_ID":"2021-018AD","RA_OF_ASC_NODE":"337.6979","PERIOD":"95.593","ARG_OF_PERICENTER":"87.1073","ELEMENT_SET_NO":"999","TIME_SYSTEM":"UTC","TLE_LINE1":"1 47814U 21018AD  22227.42896113  .00000124  00000-0  27218-4 0  9996","EPHEMERIS_TYPE":"0","REV_AT_EPOCH":"7998","MEAN_ANOMALY":"273.0058","DECAY_DATE":null,"MEAN_MOTION_DDOT":"0.0000000000000","LAUNCH_DATE":"2021-03-11","CENTER_NAME":"EARTH","SITE":"AFETR"},{"APOAPSIS":"548.161","TLE_LINE2":"2 47815  53.0553 332.8523 0001370  73.3829 286.7310 15.06400576 80376","MEAN_MOTION_DOT":"0.00003620","COUNTRY_CODE":"US","MEAN_MOTION":"15.06400576","EPOCH":"2022-08-15T09:27:56.824416","OBJECT_NAME":"STARLINK-2396","ECCENTRICITY":"0.00013700","PERIAPSIS":"546.263","REF_FRAME":"TEME","FILE":"3537056","INCLINATION":"53.0553","NORAD_CAT_ID":"47815","RCS_SIZE":"LARGE","OBJECT_TYPE":"PAYLOAD","SEMIMAJOR_AXIS":"6925.347","BSTAR":"0.00026178000000","MEAN_ELEMENT_THEORY":"SGP4","GP_ID":"210268080","OBJECT_ID":"2021-018AE","CLASSIFICATION_TYPE":"U","PERIOD":"95.592","ARG_OF_PERICENTER":"73.3829","RA_OF_ASC_NODE":"332.8523","TIME_SYSTEM":"UTC","ELEMENT_SET_NO":"999","TLE_LINE1":"1 47815U 21018AE  22227.39440769  .00003620  00000-0  26178-3 0  9992","REV_AT_EPOCH":"8037","EPHEMERIS_TYPE":"0","MEAN_ANOMALY":"286.7310","CENTER_NAME":"EARTH","LAUNCH_DATE":"2021-03-11","SITE":"AFETR","DECAY_DATE":null,"MEAN_MOTION_DDOT":"0.0000000000000"}];
